[{"OBJECT_NAME":"STARLINK-4512","OBJECT_ID":"2022-097L","EPOCH":"2026-02-28T06:33:21.780864","MEAN_MOTION":15.08845393,"ECCENTRICITY":0.00017047,"INCLINATION":53.2153,"RA_OF_ASC_NODE":166.3957,"ARG_OF_PERICENTER":77.771,"MEAN_ANOMALY":282.3473,"EPHEMERIS_TYPE":0,"CLASSIFICATION_TYPE":"U","NORAD_CAT_ID":53398,"ELEMENT_SET_NO":999,"REV_AT_EPOCH":19709,"BSTAR":0.00011701109,"MEAN_MOTION_DOT":1.575e-5,"MEAN_MOTION_DDOT":0},{"OBJECT_NAME":"STARLINK-4528","OBJECT_ID":"2022-097M","EPOCH":"2026-02-28T06:49:16.422240","MEAN_MOTION":15.08834807,"ECCENTRICITY":8.279e-5,"INCLINATION":53.2153,"RA_OF_ASC_NODE":166.3445,"ARG_OF_PERICENTER":104.2352,"MEAN_ANOMALY":255.8733,"EPHEMERIS_TYPE":0,"CLASSIFICATION_TYPE":"U","NORAD_CAT_ID":53399,"ELEMENT_SET_NO":999,"REV_AT_EPOCH":19709,"BSTAR":-8.538199e-6,"MEAN_MOTION_DOT":-4.24e-6,"MEAN_MOTION_DDOT":0},{"OBJECT_NAME":"STARLINK-4520","OBJECT_ID":"2022-097N","EPOCH":"2026-02-28T06:17:28.672224","MEAN_MOTION":15.08836326,"ECCENTRICITY":0.00014757,"INCLINATION":53.2187,"RA_OF_ASC_NODE":166.4459,"ARG_OF_PERICENTER":102.6166,"MEAN_ANOMALY":257.4991,"EPHEMERIS_TYPE":0,"CLASSIFICATION_TYPE":"U","NORAD_CAT_ID":53400,"ELEMENT_SET_NO":999,"REV_AT_EPOCH":19709,"BSTAR":1.7522225e-5,"MEAN_MOTION_DOT":-9.0e-8,"MEAN_MOTION_DDOT":0},{"OBJECT_NAME":"STARLINK-4525","OBJECT_ID":"2022-097P","EPOCH":"2026-02-28T06:38:40.456896","MEAN_MOTION":15.08846065,"ECCENTRICITY":0.00014733,"INCLINATION":53.2169,"RA_OF_ASC_NODE":166.3784,"ARG_OF_PERICENTER":104.9939,"MEAN_ANOMALY":255.1217,"EPHEMERIS_TYPE":0,"CLASSIFICATION_TYPE":"U","NORAD_CAT_ID":53401,"ELEMENT_SET_NO":999,"REV_AT_EPOCH":19709,"BSTAR":2.1562808e-5,"MEAN_MOTION_DOT":5.5e-7,"MEAN_MOTION_DDOT":0},{"OBJECT_NAME":"STARLINK-4499","OBJECT_ID":"2022-097Q","EPOCH":"2026-02-28T06:12:10.836000","MEAN_MOTION":15.08834704,"ECCENTRICITY":0.00012903,"INCLINATION":53.2169,"RA_OF_ASC_NODE":166.461,"ARG_OF_PERICENTER":90.3811,"MEAN_ANOMALY":269.7329,"EPHEMERIS_TYPE":0,"CLASSIFICATION_TYPE":"U","NORAD_CAT_ID":53402,"ELEMENT_SET_NO":999,"REV_AT_EPOCH":19709,"BSTAR":3.948632e-5,"MEAN_MOTION_DOT":3.41e-6,"MEAN_MOTION_DDOT":0},{"OBJECT_NAME":"STARLINK-4507","OBJECT_ID":"2022-097R","EPOCH":"2026-02-28T07:17:12.374880","MEAN_MOTION":15.08837172,"ECCENTRICITY":0.0001137,"INCLINATION":53.2166,"RA_OF_ASC_NODE":166.6018,"ARG_OF_PERICENTER":93.6413,"MEAN_ANOMALY":266.4709,"EPHEMERIS_TYPE":0,"CLASSIFICATION_TYPE":"U","NORAD_CAT_ID":53403,"ELEMENT_SET_NO":999,"REV_AT_EPOCH":19709,"BSTAR":1.424656e-5,"MEAN_MOTION_DOT":-6.1e-7,"MEAN_MOTION_DDOT":0},{"OBJECT_NAME":"STARLINK-4509","OBJECT_ID":"2022-097S","EPOCH":"2026-02-28T07:23:45.989088","MEAN_MOTION":15.08835345,"ECCENTRICITY":0.00013135,"INCLINATION":53.2176,"RA_OF_ASC_NODE":156.1701,"ARG_OF_PERICENTER":92.1133,"MEAN_ANOMALY":268.001,"EPHEMERIS_TYPE":0,"CLASSIFICATION_TYPE":"U","NORAD_CAT_ID":53404,"ELEMENT_SET_NO":999,"REV_AT_EPOCH":19723,"BSTAR":2.9698887e-5,"MEAN_MOTION_DOT":1.85e-6,"MEAN_MOTION_DDOT":0},{"OBJECT_NAME":"STARLINK-4510","OBJECT_ID":"2022-097T","EPOCH":"2026-02-28T06:06:53.055936","MEAN_MOTION":15.08831803,"ECCENTRICITY":0.00010158,"INCLINATION":53.216,"RA_OF_ASC_NODE":166.4763,"ARG_OF_PERICENTER":83.2468,"MEAN_ANOMALY":276.864,"EPHEMERIS_TYPE":0,"CLASSIFICATION_TYPE":"U","NORAD_CAT_ID":53405,"ELEMENT_SET_NO":999,"REV_AT_EPOCH":19709,"BSTAR":7.2951381e-5,"MEAN_MOTION_DOT":8.73e-6,"MEAN_MOTION_DDOT":0},{"OBJECT_NAME":"STARLINK-4533","OBJECT_ID":"2022-097U","EPOCH":"2026-02-28T07:06:29.882880","MEAN_MOTION":15.08831656,"ECCENTRICITY":0.00012426,"INCLINATION":53.2161,"RA_OF_ASC_NODE":156.2904,"ARG_OF_PERICENTER":89.0621,"MEAN_ANOMALY":271.0514,"EPHEMERIS_TYPE":0,"CLASSIFICATION_TYPE":"U","NORAD_CAT_ID":53406,"ELEMENT_SET_NO":999,"REV_AT_EPOCH":19723,"BSTAR":5.24114e-7,"MEAN_MOTION_DOT":-2.8e-6,"MEAN_MOTION_DDOT":0},{"OBJECT_NAME":"STARLINK-4491","OBJECT_ID":"2022-097W","EPOCH":"2026-02-28T07:22:23.930688","MEAN_MOTION":15.08831072,"ECCENTRICITY":7.196e-5,"INCLINATION":53.2172,"RA_OF_ASC_NODE":156.2466,"ARG_OF_PERICENTER":123.3398,"MEAN_ANOMALY":236.7663,"EPHEMERIS_TYPE":0,"CLASSIFICATION_TYPE":"U","NORAD_CAT_ID":53408,"ELEMENT_SET_NO":999,"REV_AT_EPOCH":19723,"BSTAR":-4.8874238e-5,"MEAN_MOTION_DOT":-1.065e-5,"MEAN_MOTION_DDOT":0},{"OBJECT_NAME":"STARLINK-4490","OBJECT_ID":"2022-097X","EPOCH":"2026-02-28T05:37:44.376960","MEAN_MOTION":15.08866007,"ECCENTRICITY":0.00014385,"INCLINATION":53.2177,"RA_OF_ASC_NODE":146.7622,"ARG_OF_PERICENTER":78.8499,"MEAN_ANOMALY":281.2654,"EPHEMERIS_TYPE":0,"CLASSIFICATION_TYPE":"U","NORAD_CAT_ID":53409,"ELEMENT_SET_NO":999,"REV_AT_EPOCH":19736,"BSTAR":0.00026263347,"MEAN_MOTION_DOT":3.897e-5,"MEAN_MOTION_DDOT":0},{"OBJECT_NAME":"STARLINK-4492","OBJECT_ID":"2022-097Y","EPOCH":"2026-02-28T07:17:05.931168","MEAN_MOTION":15.08837325,"ECCENTRICITY":0.00013644,"INCLINATION":53.218,"RA_OF_ASC_NODE":156.2578,"ARG_OF_PERICENTER":100.5059,"MEAN_ANOMALY":259.6087,"EPHEMERIS_TYPE":0,"CLASSIFICATION_TYPE":"U","NORAD_CAT_ID":53410,"ELEMENT_SET_NO":999,"REV_AT_EPOCH":19723,"BSTAR":2.838317e-6,"MEAN_MOTION_DOT":-2.43e-6,"MEAN_MOTION_DDOT":0},{"OBJECT_NAME":"STARLINK-4497","OBJECT_ID":"2022-097Z","EPOCH":"2026-02-28T05:52:19.030080","MEAN_MOTION":15.08846534,"ECCENTRICITY":0.00014171,"INCLINATION":53.219,"RA_OF_ASC_NODE":156.5251,"ARG_OF_PERICENTER":91.185,"MEAN_ANOMALY":268.9304,"EPHEMERIS_TYPE":0,"CLASSIFICATION_TYPE":"U","NORAD_CAT_ID":53411,"ELEMENT_SET_NO":999,"REV_AT_EPOCH":19722,"BSTAR":0.00017909533,"MEAN_MOTION_DOT":2.564e-5,"MEAN_MOTION_DDOT":0},{"OBJECT_NAME":"STARLINK-4496","OBJECT_ID":"2022-097AA","EPOCH":"2026-02-28T07:01:11.370144","MEAN_MOTION":15.08846487,"ECCENTRICITY":0.00013101,"INCLINATION":53.216,"RA_OF_ASC_NODE":156.3055,"ARG_OF_PERICENTER":82.0155,"MEAN_ANOMALY":278.0986,"EPHEMERIS_TYPE":0,"CLASSIFICATION_TYPE":"U","NORAD_CAT_ID":53412,"ELEMENT_SET_NO":999,"REV_AT_EPOCH":19723,"BSTAR":9.784292e-6,"MEAN_MOTION_DOT":-1.32e-6,"MEAN_MOTION_DDOT":0},{"OBJECT_NAME":"STARLINK-4500","OBJECT_ID":"2022-097AB","EPOCH":"2026-02-28T07:11:47.982624","MEAN_MOTION":15.08831996,"ECCENTRICITY":0.00012317,"INCLINATION":53.2165,"RA_OF_ASC_NODE":156.2749,"ARG_OF_PERICENTER":86.8983,"MEAN_ANOMALY":273.215,"EPHEMERIS_TYPE":0,"CLASSIFICATION_TYPE":"U","NORAD_CAT_ID":53413,"ELEMENT_SET_NO":999,"REV_AT_EPOCH":19723,"BSTAR":-5.801351e-6,"MEAN_MOTION_DOT":-3.8e-6,"MEAN_MOTION_DDOT":0},{"OBJECT_NAME":"STARLINK-4304","OBJECT_ID":"2022-097AC","EPOCH":"2026-02-28T06:55:53.933088","MEAN_MOTION":15.08835278,"ECCENTRICITY":0.00013594,"INCLINATION":53.217,"RA_OF_ASC_NODE":156.3229,"ARG_OF_PERICENTER":96.0982,"MEAN_ANOMALY":264.0165,"EPHEMERIS_TYPE":0,"CLASSIFICATION_TYPE":"U","NORAD_CAT_ID":53414,"ELEMENT_SET_NO":999,"REV_AT_EPOCH":19722,"BSTAR":1.9817758e-5,"MEAN_MOTION_DOT":2.7e-7,"MEAN_MOTION_DDOT":0}]
