STARLINK-4512           
1 53398U 22097L   26059.27316876  .00001575  00000+0  11701-3 0  9990
2 53398  53.2153 166.3957 0001704  77.7710 282.3473 15.08845393197098
STARLINK-4528           
1 53399U 22097M   26059.28421785 -.00000424  00000+0 -85382-5 0  9990
2 53399  53.2153 166.3445 0000827 104.2352 255.8733 15.08834807197096
STARLINK-4520           
1 53400U 22097N   26059.26213741 -.00000009  00000+0  17522-4 0  9990
2 53400  53.2187 166.4459 0001475 102.6166 257.4991 15.08836326197099
STARLINK-4525           
1 53401U 22097P   26059.27685714  .00000055  00000+0  21563-4 0  9995
2 53401  53.2169 166.3784 0001473 104.9939 255.1217 15.08846065197098
STARLINK-4499           
1 53402U 22097Q   26059.25845875  .00000341  00000+0  39486-4 0  9991
2 53402  53.2169 166.4610 0001290  90.3811 269.7329 15.08834704197094
STARLINK-4507           
1 53403U 22097R   26059.30361545 -.00000061  00000+0  14247-4 0  9993
2 53403  53.2166 166.6018 0001137  93.6413 266.4709 15.08837172197098
STARLINK-4509           
1 53404U 22097S   26059.30817117  .00000185  00000+0  29699-4 0  9998
2 53404  53.2176 156.1701 0001313  92.1133 268.0010 15.08835345197231
STARLINK-4510           
1 53405U 22097T   26059.25478074  .00000873  00000+0  72951-4 0  9991
2 53405  53.2160 166.4763 0001015  83.2468 276.8640 15.08831803197093
STARLINK-4533           
1 53406U 22097U   26059.29617920 -.00000280  00000+0  52411-6 0  9995
2 53406  53.2161 156.2904 0001242  89.0621 271.0514 15.08831656197235
STARLINK-4491           
1 53408U 22097W   26059.30722142 -.00001065  00000+0 -48874-4 0  9991
2 53408  53.2172 156.2466 0000719 123.3398 236.7663 15.08831072197238
STARLINK-4490           
1 53409U 22097X   26059.23454140  .00003897  00000+0  26263-3 0  9994
2 53409  53.2177 146.7622 0001438  78.8499 281.2654 15.08866007197362
STARLINK-4492           
1 53410U 22097Y   26059.30354087 -.00000243  00000+0  28383-5 0  9993
2 53410  53.2180 156.2578 0001364 100.5059 259.6087 15.08837325197233
STARLINK-4497           
1 53411U 22097Z   26059.24466470  .00002564  00000+0  17910-3 0  9996
2 53411  53.2190 156.5251 0001417  91.1850 268.9304 15.08846534197225
STARLINK-4496           
1 53412U 22097AA  26059.29249271 -.00000132  00000+0  97843-5 0  9995
2 53412  53.2160 156.3055 0001310  82.0155 278.0986 15.08846487197238
STARLINK-4500           
1 53413U 22097AB  26059.29986091 -.00000380  00000+0 -58014-5 0  9997
2 53413  53.2165 156.2749 0001231  86.8983 273.2150 15.08831996197235
STARLINK-4304           
1 53414U 22097AC  26059.28881867  .00000027  00000+0  19818-4 0  9996
2 53414  53.2170 156.3229 0001359  96.0982 264.0165 15.08835278197229
